IRIDIUM 33              
1 24946U 97051C   26063.42674667  .00000454  00000+0  15235-3 0  9997
2 24946  86.3873  33.9069 0006380 321.3752  38.6987 14.35097837490069
IRIDIUM 33 DEB          
1 33773U 97051L   26064.14475042  .00001482  00000+0  43260-3 0  9992
2 33773  86.4030  25.6475 0009023 236.0466 123.9878 14.43466579895364
IRIDIUM 33 DEB          
1 33775U 97051N   26064.32926145  .00002156  00000+0  65471-3 0  9996
2 33775  86.3670  14.2799 0010785 249.7600 268.1331 14.41741254893308
IRIDIUM 33 DEB          
1 33776U 97051P   26063.49144682  .00001290  00000+0  41682-3 0  9998
2 33776  86.4016  46.4112 0012438 294.1617 184.2892 14.38395257892571
IRIDIUM 33 DEB          
1 33777U 97051Q   26064.23749807  .00004253  00000+0  95591-3 0  9992
2 33777  86.3835 359.2978 0006860   2.0137 358.1097 14.56295447897349
IRIDIUM 33 DEB          
1 33850U 97051T   26064.21894405  .00001888  00000+0  56430-3 0  9997
2 33850  86.3467 354.7146 0008912 259.9176 236.4832 14.42470029893410
IRIDIUM 33 DEB          
1 33853U 97051W   26064.30931673  .00003275  00000+0  18456-2 0  9996
2 33853  85.9999 313.6084 0210506 343.6093 122.4248 13.99562490865000
IRIDIUM 33 DEB          
1 33860U 97051AD  26064.27836995  .00010932  00000+0  18599-2 0  9997
2 33860  86.3875 350.6660 0011643  59.5548  58.9635 14.68966335899335
IRIDIUM 33 DEB          
1 33862U 97051AF  26064.27913041  .00014274  00000+0  22389-2 0  9992
2 33862  86.4132   1.0722 0050308 138.1050  19.2462 14.71705678900362
IRIDIUM 33 DEB          
1 33866U 97051AK  26063.43626199  .00004671  00000+0  18399-2 0  9994
2 33866  86.2982  58.4415 0110802 259.7495 264.5453 14.25703804879741
IRIDIUM 33 DEB          
1 33870U 97051AP  26064.32613878  .00004098  00000+0  11345-2 0  9995
2 33870  86.3776  22.8332 0018190 270.1490 243.1265 14.46370553893306
IRIDIUM 33 DEB          
1 33881U 97051BA  26064.01822808  .00018090  00000+0  37815-2 0  9995
2 33881  86.3813  70.9035 0052722 258.3258 128.4385 14.58860889886997
IRIDIUM 33 DEB          
1 33884U 97051BD  26064.23571710  .00019530  00000+0  25633-2 0  9990
2 33884  86.3726 332.5224 0013896  31.6003 126.2355 14.80120580900665
IRIDIUM 33 DEB          
1 33886U 97051BF  26064.32515566  .00000868  00000+0  29092-3 0  9997
2 33886  86.3838  32.4423 0013466 345.6847 176.2040 14.36162101892375
IRIDIUM 33 DEB          
1 33887U 97051BG  26064.26303310  .00000602  00000+0  19522-3 0  9996
2 33887  86.3082 327.8525 0005646 351.4701 131.2915 14.37319795893508
IRIDIUM 33 DEB          
1 33953U 97051BN  26063.84109891  .00007661  00000+0  17215-2 0  9999
2 33953  86.3883  18.1098 0015478 172.8521 216.8565 14.56333142894982
