[{"OBJECT_NAME":"IRIDIUM 33","OBJECT_ID":"1997-051C","EPOCH":"2026-03-04T10:14:30.912288","MEAN_MOTION":14.35097837,"ECCENTRICITY":0.00063803,"INCLINATION":86.3873,"RA_OF_ASC_NODE":33.9069,"ARG_OF_PERICENTER":321.3752,"MEAN_ANOMALY":38.6987,"EPHEMERIS_TYPE":0,"CLASSIFICATION_TYPE":"U","NORAD_CAT_ID":24946,"ELEMENT_SET_NO":999,"REV_AT_EPOCH":49006,"BSTAR":0.00015235474,"MEAN_MOTION_DOT":4.54e-6,"MEAN_MOTION_DDOT":0},{"OBJECT_NAME":"IRIDIUM 33 DEB","OBJECT_ID":"1997-051L","EPOCH":"2026-03-05T03:28:26.436288","MEAN_MOTION":14.43466579,"ECCENTRICITY":0.00090232,"INCLINATION":86.403,"RA_OF_ASC_NODE":25.6475,"ARG_OF_PERICENTER":236.0466,"MEAN_ANOMALY":123.9878,"EPHEMERIS_TYPE":0,"CLASSIFICATION_TYPE":"U","NORAD_CAT_ID":33773,"ELEMENT_SET_NO":999,"REV_AT_EPOCH":89536,"BSTAR":0.00043260234,"MEAN_MOTION_DOT":1.482e-5,"MEAN_MOTION_DDOT":0},{"OBJECT_NAME":"IRIDIUM 33 DEB","OBJECT_ID":"1997-051N","EPOCH":"2026-03-05T07:54:08.189280","MEAN_MOTION":14.41741254,"ECCENTRICITY":0.00107859,"INCLINATION":86.367,"RA_OF_ASC_NODE":14.2799,"ARG_OF_PERICENTER":249.76,"MEAN_ANOMALY":268.1331,"EPHEMERIS_TYPE":0,"CLASSIFICATION_TYPE":"U","NORAD_CAT_ID":33775,"ELEMENT_SET_NO":999,"REV_AT_EPOCH":89330,"BSTAR":0.00065471177,"MEAN_MOTION_DOT":2.156e-5,"MEAN_MOTION_DDOT":0},{"OBJECT_NAME":"IRIDIUM 33 DEB","OBJECT_ID":"1997-051P","EPOCH":"2026-03-04T11:47:41.005248","MEAN_MOTION":14.38395257,"ECCENTRICITY":0.0012438,"INCLINATION":86.4016,"RA_OF_ASC_NODE":46.4112,"ARG_OF_PERICENTER":294.1617,"MEAN_ANOMALY":184.2892,"EPHEMERIS_TYPE":0,"CLASSIFICATION_TYPE":"U","NORAD_CAT_ID":33776,"ELEMENT_SET_NO":999,"REV_AT_EPOCH":89257,"BSTAR":0.00041682132,"MEAN_MOTION_DOT":1.29e-5,"MEAN_MOTION_DDOT":0},{"OBJECT_NAME":"IRIDIUM 33 DEB","OBJECT_ID":"1997-051Q","EPOCH":"2026-03-05T05:41:59.833248","MEAN_MOTION":14.56295447,"ECCENTRICITY":0.00068607,"INCLINATION":86.3835,"RA_OF_ASC_NODE":359.2978,"ARG_OF_PERICENTER":2.0137,"MEAN_ANOMALY":358.1097,"EPHEMERIS_TYPE":0,"CLASSIFICATION_TYPE":"U","NORAD_CAT_ID":33777,"ELEMENT_SET_NO":999,"REV_AT_EPOCH":89734,"BSTAR":0.00095591469,"MEAN_MOTION_DOT":4.253e-5,"MEAN_MOTION_DDOT":0},{"OBJECT_NAME":"IRIDIUM 33 DEB","OBJECT_ID":"1997-051T","EPOCH":"2026-03-05T05:15:16.765920","MEAN_MOTION":14.42470029,"ECCENTRICITY":0.00089127,"INCLINATION":86.3467,"RA_OF_ASC_NODE":354.7146,"ARG_OF_PERICENTER":259.9176,"MEAN_ANOMALY":236.4832,"EPHEMERIS_TYPE":0,"CLASSIFICATION_TYPE":"U","NORAD_CAT_ID":33850,"ELEMENT_SET_NO":999,"REV_AT_EPOCH":89341,"BSTAR":0.00056429885,"MEAN_MOTION_DOT":1.888e-5,"MEAN_MOTION_DDOT":0},{"OBJECT_NAME":"IRIDIUM 33 DEB","OBJECT_ID":"1997-051W","EPOCH":"2026-03-05T07:25:24.965472","MEAN_MOTION":13.9956249,"ECCENTRICITY":0.02105068,"INCLINATION":85.9999,"RA_OF_ASC_NODE":313.6084,"ARG_OF_PERICENTER":343.6093,"MEAN_ANOMALY":122.4248,"EPHEMERIS_TYPE":0,"CLASSIFICATION_TYPE":"U","NORAD_CAT_ID":33853,"ELEMENT_SET_NO":999,"REV_AT_EPOCH":86500,"BSTAR":0.0018456439,"MEAN_MOTION_DOT":3.275e-5,"MEAN_MOTION_DDOT":0},{"OBJECT_NAME":"IRIDIUM 33 DEB","OBJECT_ID":"1997-051AD","EPOCH":"2026-03-05T06:40:51.163680","MEAN_MOTION":14.68966335,"ECCENTRICITY":0.00116433,"INCLINATION":86.3875,"RA_OF_ASC_NODE":350.666,"ARG_OF_PERICENTER":59.5548,"MEAN_ANOMALY":58.9635,"EPHEMERIS_TYPE":0,"CLASSIFICATION_TYPE":"U","NORAD_CAT_ID":33860,"ELEMENT_SET_NO":999,"REV_AT_EPOCH":89933,"BSTAR":0.0018599018,"MEAN_MOTION_DOT":0.00010932,"MEAN_MOTION_DDOT":0},{"OBJECT_NAME":"IRIDIUM 33 DEB","OBJECT_ID":"1997-051AF","EPOCH":"2026-03-05T06:41:56.867424","MEAN_MOTION":14.71705678,"ECCENTRICITY":0.00503082,"INCLINATION":86.4132,"RA_OF_ASC_NODE":1.0722,"ARG_OF_PERICENTER":138.105,"MEAN_ANOMALY":19.2462,"EPHEMERIS_TYPE":0,"CLASSIFICATION_TYPE":"U","NORAD_CAT_ID":33862,"ELEMENT_SET_NO":999,"REV_AT_EPOCH":90036,"BSTAR":0.0022389185,"MEAN_MOTION_DOT":0.00014274,"MEAN_MOTION_DDOT":0},{"OBJECT_NAME":"IRIDIUM 33 DEB","OBJECT_ID":"1997-051AK","EPOCH":"2026-03-04T10:28:13.035936","MEAN_MOTION":14.25703804,"ECCENTRICITY":0.01108027,"INCLINATION":86.2982,"RA_OF_ASC_NODE":58.4415,"ARG_OF_PERICENTER":259.7495,"MEAN_ANOMALY":264.5453,"EPHEMERIS_TYPE":0,"CLASSIFICATION_TYPE":"U","NORAD_CAT_ID":33866,"ELEMENT_SET_NO":999,"REV_AT_EPOCH":87974,"BSTAR":0.0018398976,"MEAN_MOTION_DOT":4.671e-5,"MEAN_MOTION_DDOT":0},{"OBJECT_NAME":"IRIDIUM 33 DEB","OBJECT_ID":"1997-051AP","EPOCH":"2026-03-05T07:49:38.390592","MEAN_MOTION":14.46370553,"ECCENTRICITY":0.00181902,"INCLINATION":86.3776,"RA_OF_ASC_NODE":22.8332,"ARG_OF_PERICENTER":270.149,"MEAN_ANOMALY":243.1265,"EPHEMERIS_TYPE":0,"CLASSIFICATION_TYPE":"U","NORAD_CAT_ID":33870,"ELEMENT_SET_NO":999,"REV_AT_EPOCH":89330,"BSTAR":0.0011345499,"MEAN_MOTION_DOT":4.098e-5,"MEAN_MOTION_DDOT":0},{"OBJECT_NAME":"IRIDIUM 33 DEB","OBJECT_ID":"1997-051BA","EPOCH":"2026-03-05T00:26:14.906112","MEAN_MOTION":14.58860889,"ECCENTRICITY":0.00527223,"INCLINATION":86.3813,"RA_OF_ASC_NODE":70.9035,"ARG_OF_PERICENTER":258.3258,"MEAN_ANOMALY":128.4385,"EPHEMERIS_TYPE":0,"CLASSIFICATION_TYPE":"U","NORAD_CAT_ID":33881,"ELEMENT_SET_NO":999,"REV_AT_EPOCH":88699,"BSTAR":0.0037815064,"MEAN_MOTION_DOT":0.0001809,"MEAN_MOTION_DDOT":0},{"OBJECT_NAME":"IRIDIUM 33 DEB","OBJECT_ID":"1997-051BD","EPOCH":"2026-03-05T05:39:25.957440","MEAN_MOTION":14.8012058,"ECCENTRICITY":0.0013896,"INCLINATION":86.3726,"RA_OF_ASC_NODE":332.5224,"ARG_OF_PERICENTER":31.6003,"MEAN_ANOMALY":126.2355,"EPHEMERIS_TYPE":0,"CLASSIFICATION_TYPE":"U","NORAD_CAT_ID":33884,"ELEMENT_SET_NO":999,"REV_AT_EPOCH":90066,"BSTAR":0.0025632952,"MEAN_MOTION_DOT":0.0001953,"MEAN_MOTION_DDOT":0},{"OBJECT_NAME":"IRIDIUM 33 DEB","OBJECT_ID":"1997-051BF","EPOCH":"2026-03-05T07:48:13.449024","MEAN_MOTION":14.36162101,"ECCENTRICITY":0.00134668,"INCLINATION":86.3838,"RA_OF_ASC_NODE":32.4423,"ARG_OF_PERICENTER":345.6847,"MEAN_ANOMALY":176.204,"EPHEMERIS_TYPE":0,"CLASSIFICATION_TYPE":"U","NORAD_CAT_ID":33886,"ELEMENT_SET_NO":999,"REV_AT_EPOCH":89237,"BSTAR":0.00029091809,"MEAN_MOTION_DOT":8.68e-6,"MEAN_MOTION_DDOT":0},{"OBJECT_NAME":"IRIDIUM 33 DEB","OBJECT_ID":"1997-051BG","EPOCH":"2026-03-05T06:18:46.059840","MEAN_MOTION":14.37319795,"ECCENTRICITY":0.00056469,"INCLINATION":86.3082,"RA_OF_ASC_NODE":327.8525,"ARG_OF_PERICENTER":351.4701,"MEAN_ANOMALY":131.2915,"EPHEMERIS_TYPE":0,"CLASSIFICATION_TYPE":"U","NORAD_CAT_ID":33887,"ELEMENT_SET_NO":999,"REV_AT_EPOCH":89350,"BSTAR":0.00019522336,"MEAN_MOTION_DOT":6.02e-6,"MEAN_MOTION_DDOT":0},{"OBJECT_NAME":"IRIDIUM 33 DEB","OBJECT_ID":"1997-051BN","EPOCH":"2026-03-04T20:11:10.945824","MEAN_MOTION":14.56333142,"ECCENTRICITY":0.00154787,"INCLINATION":86.3883,"RA_OF_ASC_NODE":18.1098,"ARG_OF_PERICENTER":172.8521,"MEAN_ANOMALY":216.8565,"EPHEMERIS_TYPE":0,"CLASSIFICATION_TYPE":"U","NORAD_CAT_ID":33953,"ELEMENT_SET_NO":999,"REV_AT_EPOCH":89498,"BSTAR":0.001721472,"MEAN_MOTION_DOT":7.661e-5,"MEAN_MOTION_DDOT":0}]
